0 IRIDIUM 33 DEB
1 35487U 97051QH  13281.92849660  .00009870  00000-0  38840-2 0  6769
2 35487 086.3578 140.8061 0080235 057.8484 006.0039 14.27364131230779
0 IRIDIUM 33 DEB
1 35487U 97051QH  13283.34235102  .00009324  00000-0  36671-2 0  6772
2 35487 086.3579 140.2156 0080187 053.4539 071.0200 14.27391318230979
0 IRIDIUM 33 DEB
1 35487U 97051QH  13285.37513084  .00007606  00000-0  29896-2 0  6788
2 35487 086.3579 139.3662 0080063 047.1067 076.5758 14.27418434231269
0 IRIDIUM 33 DEB
1 35487U 97051QH  13287.06295382  .00007357  00000-0  28905-2 0  6798
2 35487 086.3576 138.6608 0079997 041.7899 109.7494 14.27441322231500
0 IRIDIUM 33 DEB
1 35487U 97051QH  13288.58763546  .00011569  00000-0  45445-2 0  6808
2 35487 086.3572 138.0243 0079862 036.9546 024.7672 14.27474359231725
0 IRIDIUM 33 DEB
1 35487U 97051QH  13289.84809321  .00010266  00000-0  40313-2 0  6813
2 35487 086.3568 137.4974 0079781 032.9634 022.1255 14.27493294231906
0 IRIDIUM 33 DEB
1 35487U 97051QH  13290.90025644  .00009361  00000-0  36747-2 0  6821
2 35487 086.3564 137.0578 0079657 029.6099 029.1698 14.27513487232050
0 IRIDIUM 33 DEB
1 35487U 97051QH  13292.31487446  .00009073  00000-0  35604-2 0  6832
2 35487 086.3560 136.4666 0079562 025.1354 098.9389 14.27536348232251
0 IRIDIUM 33 DEB
1 35487U 97051QH  13293.84379865  .00010394  00000-0  40778-2 0  6843
2 35487 086.3560 135.8276 0079383 020.2981 036.2670 14.27559582232471
0 IRIDIUM 33 DEB
1 35487U 97051QH  13295.52102319  .00011576  00000-0  45396-2 0  6853
2 35487 086.3563 135.1266 0079216 014.9413 015.9313 14.27589208232714
